{"type": "FeatureCollection", "features": [{"type": "Feature", "properties": {"norad_id": 50032, "name": "COSMOS 1408 DEB", "group": "cosmos-1408-debris", "lat": -69.97893410332648, "lon": 46.303712158998245, "alt_km": 430.136279769682, "timestamp": "2025-12-04T03:47:54.813782+00:00", "meta": {"OBJECT_NAME": "COSMOS 1408 DEB", "OBJECT_ID": "1982-092RU", "EPOCH": "2025-12-03T12:34:05.444832", "MEAN_MOTION": 15.45544262, "ECCENTRICITY": 0.0014683, "INCLINATION": 82.5656, "RA_OF_ASC_NODE": 67.9532, "ARG_OF_PERICENTER": 244.7236, "MEAN_ANOMALY": 115.2492, "EPHEMERIS_TYPE": 0, "CLASSIFICATION_TYPE": "U", "NORAD_CAT_ID": 50032, "ELEMENT_SET_NO": 999, "REV_AT_EPOCH": 22461, "BSTAR": 0.00015926, "MEAN_MOTION_DOT": 7.716e-05, "MEAN_MOTION_DDOT": 0}, "tle": {"line1": "1 50032U 82092RU  25337.52367413  .00007716  00000+0  15926-3 0  9998", "line2": "2 50032  82.5656  67.9532 0014683 244.7236 115.2492 15.45544262224613"}}, "geometry": {"type": "Point", "coordinates": [46.303712158998245, -69.97893410332648]}}, {"type": "Feature", "properties": {"norad_id": 50058, "name": "COSMOS 1408 DEB", "group": "cosmos-1408-debris", "lat": -66.5737751516352, "lon": 60.89564993640892, "alt_km": 395.8799729312168, "timestamp": "2025-12-04T03:47:54.813813+00:00", "meta": {"OBJECT_NAME": "COSMOS 1408 DEB", "OBJECT_ID": "1982-092SW", "EPOCH": "2025-12-03T17:20:05.925120", "MEAN_MOTION": 15.63277403, "ECCENTRICITY": 0.0016276, "INCLINATION": 82.6139, "RA_OF_ASC_NODE": 78.7729, "ARG_OF_PERICENTER": 130.9471, "MEAN_ANOMALY": 229.3199, "EPHEMERIS_TYPE": 0, "CLASSIFICATION_TYPE": "U", "NORAD_CAT_ID": 50058, "ELEMENT_SET_NO": 999, "REV_AT_EPOCH": 22663, "BSTAR": 0.00047031, "MEAN_MOTION_DOT": 0.00043555, "MEAN_MOTION_DDOT": 0}, "tle": {"line1": "1 50058U 82092SW  25337.72229080  .00043555  00000+0  47031-3 0  9998", "line2": "2 50058  82.6139  78.7729 0016276 130.9471 229.3199 15.63277403226638"}}, "geometry": {"type": "Point", "coordinates": [60.89564993640892, -66.5737751516352]}}, {"type": "Feature", "properties": {"norad_id": 50404, "name": "COSMOS 1408 DEB", "group": "cosmos-1408-debris", "lat": 11.551764998580314, "lon": 42.20249579770319, "alt_km": 470.1218010593857, "timestamp": "2025-12-04T03:47:54.813826+00:00", "meta": {"OBJECT_NAME": "COSMOS 1408 DEB", "OBJECT_ID": "1982-092ADS", "EPOCH": "2025-12-03T17:30:42.573024", "MEAN_MOTION": 15.11852936, "ECCENTRICITY": 0.0176218, "INCLINATION": 82.2071, "RA_OF_ASC_NODE": 224.2439, "ARG_OF_PERICENTER": 230.1251, "MEAN_ANOMALY": 128.4371, "EPHEMERIS_TYPE": 0, "CLASSIFICATION_TYPE": "U", "NORAD_CAT_ID": 50404, "ELEMENT_SET_NO": 999, "REV_AT_EPOCH": 21057, "BSTAR": 0.0038747, "MEAN_MOTION_DOT": 0.00097797, "MEAN_MOTION_DDOT": 0}, "tle": {"line1": "1 50404U 82092ADS 25337.72965941  .00097797  00000+0  38747-2 0  9996", "line2": "2 50404  82.2071 224.2439 0176218 230.1251 128.4371 15.11852936210572"}}, "geometry": {"type": "Point", "coordinates": [42.20249579770319, 11.551764998580314]}}, {"type": "Feature", "properties": {"norad_id": 50621, "name": "COSMOS 1408 DEB", "group": "cosmos-1408-debris", "lat": 3.19085557496349, "lon": -97.307880503481, "alt_km": 382.66961654944043, "timestamp": "2025-12-04T03:47:54.813851+00:00", "meta": {"OBJECT_NAME": "COSMOS 1408 DEB", "OBJECT_ID": "1982-092ALR", "EPOCH": "2025-12-03T13:08:59.567424", "MEAN_MOTION": 15.55913767, "ECCENTRICITY": 0.0028879, "INCLINATION": 82.5707, "RA_OF_ASC_NODE": 83.7436, "ARG_OF_PERICENTER": 186.1863, "MEAN_ANOMALY": 173.904, "EPHEMERIS_TYPE": 0, "CLASSIFICATION_TYPE": "U", "NORAD_CAT_ID": 50621, "ELEMENT_SET_NO": 999, "REV_AT_EPOCH": 22107, "BSTAR": 0.00051677, "MEAN_MOTION_DOT": 0.00036634, "MEAN_MOTION_DDOT": 0}, "tle": {"line1": "1 50621U 82092ALR 25337.54791166  .00036634  00000+0  51677-3 0  9994", "line2": "2 50621  82.5707  83.7436 0028879 186.1863 173.9040 15.55913767221078"}}, "geometry": {"type": "Point", "coordinates": [-97.307880503481, 3.19085557496349]}}]}